NORAD_CAT_ID,OBJECT_NAME,OBJECT_TYPE,EPOCH,MEAN_MOTION,ECCENTRICITY,INCLINATION,RA_OF_ASC_NODE,ARG_OF_PERICENTER,MEAN_ANOMALY,BSTAR,MEAN_MOTION_DOT,MEAN_MOTION_DDOT,TLE_LINE0,TLE_LINE1,TLE_LINE2,SEMIMAJOR_AXIS,PERIOD,APOGEE,PERIGEE,DECAYED
51741.0,STARLINK-3520,PAYLOAD,2024-07-04 17:20:38,15.08839094,0.0001294,53.2161,190.8498,90.8078,269.3063,2.9576e-05,1.83e-06,0.0,0 STARLINK-3520,1 51741U 22016AD  24186.72266215  .00000183  00000-0  29576-4 0  9996,2 51741  53.2161 190.8498 0001294  90.8078 269.3063 15.08839094131028,6917.883,95.438,540.643,538.853,0.0
51741.0,STARLINK-3520,PAYLOAD,2024-07-05 04:28:20,15.08828857,0.0001341,53.2165,188.7685,92.6504,267.4642,-3.1864e-05,-7.95e-06,0.0,0 STARLINK-3520,1 51741U 22016AD  24187.18635252 -.00000795  00000-0 -31864-4 0  9992,2 51741  53.2165 188.7685 0001341  92.6504 267.4642 15.08828857132201,6917.914,95.438,540.707,538.852,0.0
51741.0,STARLINK-3520,PAYLOAD,2024-07-05 09:14:33,15.08785768,0.0001488,53.216,187.8761,82.0102,278.1059,-0.00038132,-6.342e-05,0.0,0 STARLINK-3520,1 51741U 22016AD  24187.38511421 -.00006342  00000-0 -38132-3 0  9993,2 51741  53.2160 187.8761 0001488  82.0102 278.1059 15.08785768132237,6918.046,95.441,540.941,538.882,0.0
51741.0,STARLINK-3520,PAYLOAD,2024-07-05 17:11:27,15.08817679,0.0001111,53.2165,186.3898,81.1606,278.9512,-0.00010694,-1.988e-05,0.0,0 STARLINK-3520,1 51741U 22016AD  24187.71629099 -.00001988  00000-0 -10694-3 0  9995,2 51741  53.2165 186.3898 0001111  81.1606 278.9512 15.08817679132283,6917.949,95.439,540.582,539.045,0.0
51741.0,STARLINK-3520,PAYLOAD,2024-07-06 05:54:31,15.08839712,0.0001516,53.2167,184.0111,76.8376,283.2785,7.9785e-05,9.82e-06,0.0,0 STARLINK-3520,1 51741U 22016AD  24188.24619543  .00000982  00000-0  79785-4 0  9995,2 51741  53.2167 184.0111 0001516  76.8376 283.2785 15.08839712132364,6917.881,95.438,540.795,538.698,0.0
51741.0,STARLINK-3520,PAYLOAD,2024-07-06 09:05:17,15.08843524,0.0001597,53.2163,183.416,76.8178,283.2992,0.00010067,1.315e-05,0.0,0 STARLINK-3520,1 51741U 22016AD  24188.37867249  .00001315  00000-0  10067-3 0  9995,2 51741  53.2163 183.4160 0001597  76.8178 283.2992 15.08843524131271,6917.87,95.437,540.839,538.63,0.0
51741.0,STARLINK-3520,PAYLOAD,2024-07-06 17:02:12,15.0884608,0.0001615,53.2163,181.9293,76.1652,283.952,0.0001058,1.396e-05,0.0,0 STARLINK-3520,1 51741U 22016AD  24188.70986994  .00001396  00000-0  10580-3 0  9990,2 51741  53.2163 181.9293 0001615  76.1652 283.9520 15.08846080131322,6917.862,95.437,540.844,538.61,0.0
51741.0,STARLINK-3520,PAYLOAD,2024-07-07 08:56:03,15.08824422,0.0002105,53.2161,178.9547,60.3682,299.752,0.00053158,8.179e-05,0.0,0 STARLINK-3520,1 51741U 22016AD  24189.37226808  .00008179  00000-0  53158-3 0  9999,2 51741  53.2161 178.9547 0002105  60.3682 299.7520 15.08824422132536,6917.928,95.439,541.249,538.337,0.0
51741.0,STARLINK-3520,PAYLOAD,2024-07-08 05:36:04,15.08852478,0.0001804,53.216,175.0866,75.9146,284.2047,1.8146e-05,1e-08,0.0,0 STARLINK-3520,1 51741U 22016AD  24190.23338500  .00000001  00000-0  18146-4 0  9994,2 51741  53.2160 175.0866 0001804  75.9146 284.2047 15.08852478132668,6917.842,95.437,540.955,538.459,0.0
51741.0,STARLINK-3520,PAYLOAD,2024-07-08 23:05:19,15.08848956,0.0001881,53.2164,171.8146,80.9054,279.2151,-9.2929e-05,-1.767e-05,0.0,0 STARLINK-3520,1 51741U 22016AD  24190.96202594 -.00001767  00000-0 -92929-4 0  9990,2 51741  53.2164 171.8146 0001881  80.9054 279.2151 15.08848956131661,6917.853,95.437,541.019,538.417,0.0
51741.0,STARLINK-3520,PAYLOAD,2024-07-09 05:26:51,15.08849216,0.0001869,53.2164,170.6255,79.838,280.2823,-8.0999e-05,-1.577e-05,0.0,0 STARLINK-3520,1 51741U 22016AD  24191.22698332 -.00001577  00000-0 -80999-4 0  9992,2 51741  53.2164 170.6255 0001869  79.8380 280.2823 15.08849216132810,6917.852,95.437,541.01,538.424,0.0
51741.0,STARLINK-3520,PAYLOAD,2024-07-09 08:37:37,15.08846163,0.0001966,53.2172,170.0322,81.811,278.3105,-7.8209e-05,-1.533e-05,0.0,0 STARLINK-3520,1 51741U 22016AD  24191.35946461 -.00001533  00000-0 -78209-4 0  9998,2 51741  53.2172 170.0322 0001966  81.8110 278.3105 15.08846163131728,6917.862,95.437,541.087,538.366,0.0
51741.0,STARLINK-3520,PAYLOAD,2024-07-09 22:56:06,15.08834989,0.0001893,53.2162,167.3562,81.2502,278.8704,-3.7787e-05,-8.89e-06,0.0,0 STARLINK-3520,1 51741U 22016AD  24191.95562840 -.00000889  00000-0 -37787-4 0  9998,2 51741  53.2162 167.3562 0001893  81.2502 278.8704 15.08834989131813,6917.896,95.438,541.07,538.451,0.0
51741.0,STARLINK-3520,PAYLOAD,2024-07-10 05:17:38,15.08834649,0.0001759,53.2153,166.167,78.9553,281.1637,-3.4418e-05,-8.36e-06,0.0,0 STARLINK-3520,1 51741U 22016AD  24192.22058957 -.00000836  00000-0 -34418-4 0  9998,2 51741  53.2153 166.1670 0001759  78.9553 281.1637 15.08834649132962,6917.897,95.438,540.979,538.545,0.0
51741.0,STARLINK-3520,PAYLOAD,2024-07-10 22:46:53,15.08836195,0.0001744,53.2159,162.897,80.9985,279.1204,2.7737e-05,1.53e-06,0.0,0 STARLINK-3520,1 51741U 22016AD  24192.94922805  .00000153  00000-0  27737-4 0  9995,2 51741  53.2159 162.8970 0001744  80.9985 279.1204 15.08836195131964,6917.892,95.438,540.963,538.551,0.0
51741.0,STARLINK-3520,PAYLOAD,2024-07-11 05:08:25,15.08840401,0.000178,53.2165,161.708,81.8096,278.3098,5.9779e-05,6.63e-06,0.0,0 STARLINK-3520,1 51741U 22016AD  24193.21418492  .00000663  00000-0  59779-4 0  9995,2 51741  53.2165 161.7080 0001780  81.8096 278.3098 15.08840401133110,6917.879,95.438,540.976,538.513,0.0
51741.0,STARLINK-3520,PAYLOAD,2024-07-11 08:19:11,15.08842853,0.0001767,53.2163,161.1129,81.2644,278.8548,7.7373e-05,9.44e-06,0.0,0 STARLINK-3520,1 51741U 22016AD  24193.34666271  .00000944  00000-0  77373-4 0  9991,2 51741  53.2163 161.1129 0001767  81.2644 278.8548 15.08842853132021,6917.872,95.437,540.959,538.514,0.0
51741.0,STARLINK-3520,PAYLOAD,2024-07-12 04:59:13,15.08835587,0.000176,53.2169,157.2477,84.6609,275.4584,5.9841e-05,6.64e-06,0.0,0 STARLINK-3520,1 51741U 22016AD  24194.20779110  .00000664  00000-0  59841-4 0  9993,2 51741  53.2169 157.2477 0001760  84.6609 275.4584 15.08835587133266,6917.894,95.438,540.976,538.541,0.0
51741.0,STARLINK-3520,PAYLOAD,2024-07-12 14:31:32,15.08837421,0.000178,53.2171,155.4613,86.5845,273.535,-3.2886e-06,-3.4e-06,0.0,0 STARLINK-3520,1 51741U 22016AD  24194.60523223 -.00000340  00000-0 -32886-5 0  9993,2 51741  53.2171 155.4613 0001780  86.5845 273.5350 15.08837421132219,6917.888,95.438,540.985,538.522,0.0
51741.0,STARLINK-3520,PAYLOAD,2024-07-13 04:50:00,15.08816047,0.0001809,53.2177,152.7819,97.9755,262.1443,0.00027421,4.076e-05,0.0,0 STARLINK-3520,1 51741U 22016AD  24195.20139876  .00004076  00000-0  27421-3 0  9992,2 51741  53.2177 152.7819 0001809  97.9755 262.1443 15.08816047133412,6917.954,95.439,541.07,538.567,0.0
51741.0,STARLINK-3520,PAYLOAD,2024-07-13 06:25:23,15.08839379,0.0001871,53.2178,152.4877,97.4831,262.6374,-2.7386e-05,-7.24e-06,0.0,0 STARLINK-3520,1 51741U 22016AD  24195.26763347 -.00000724  00000-0 -27386-4 0  9993,2 51741  53.2178 152.4877 0001871  97.4831 262.6374 15.08839379133425,6917.882,95.438,541.042,538.453,0.0
51741.0,STARLINK-3520,PAYLOAD,2024-07-13 14:22:19,15.08838198,0.0001876,53.218,151.0004,86.1533,273.9674,-1.4544e-05,-5.2e-06,0.0,0 STARLINK-3520,1 51741U 22016AD  24195.59883484 -.00000520  00000-0 -14544-4 0  9990,2 51741  53.2180 151.0004 0001876  86.1533 273.9674 15.08838198132362,6917.886,95.438,541.049,538.453,0.0
51741.0,STARLINK-3520,PAYLOAD,2024-07-14 06:16:10,15.08846352,0.0001567,53.2164,148.0278,97.5616,262.5554,5.9685e-05,6.62e-06,0.0,0 STARLINK-3520,1 51741U 22016AD  24196.26122728  .00000662  00000-0  59685-4 0  9992,2 51741  53.2164 148.0278 0001567  97.5616 262.5554 15.08846352133574,6917.861,95.437,540.81,538.642,0.0
51741.0,STARLINK-3520,PAYLOAD,2024-07-14 14:13:06,15.08836708,0.0001681,53.2172,146.537,97.3597,262.7586,6.4478e-06,-1.85e-06,0.0,0 STARLINK-3520,1 51741U 22016AD  24196.59243469 -.00000185  00000-0  64478-5 0  9992,2 51741  53.2172 146.5370 0001681  97.3597 262.7586 15.08836708132516,6917.89,95.438,540.918,538.593,0.0
51741.0,STARLINK-3520,PAYLOAD,2024-07-14 20:34:39,15.08833156,0.0001601,53.2168,145.3483,97.6921,262.4253,3.1638e-05,2.15e-06,0.0,0 STARLINK-3520,1 51741U 22016AD  24196.85739668  .00000215  00000-0  31638-4 0  9996,2 51741  53.2168 145.3483 0001601  97.6921 262.4253 15.08833156133668,6917.901,95.438,540.874,538.659,0.0
51741.0,STARLINK-3520,PAYLOAD,2024-07-15 02:56:11,15.0884102,0.0001569,53.2165,144.1624,91.9438,268.1734,8.8054e-05,1.114e-05,0.0,0 STARLINK-3520,1 51741U 22016AD  24197.12235036  .00001114  00000-0  88054-4 0  9990,2 51741  53.2165 144.1624 0001569  91.9438 268.1734 15.08841020133703,6917.877,95.437,540.828,538.657,0.0
51741.0,STARLINK-3520,PAYLOAD,2024-07-15 06:06:56,15.08846847,0.0001611,53.2167,143.5669,93.3533,266.7643,9.5371e-05,1.23e-05,0.0,0 STARLINK-3520,1 51741U 22016AD  24197.25482632  .00001230  00000-0  95371-4 0  9999,2 51741  53.2167 143.5669 0001611  93.3533 266.7643 15.08846847132611,6917.859,95.437,540.839,538.61,0.0
51741.0,STARLINK-3520,PAYLOAD,2024-07-16 05:57:44,15.08844281,0.0001502,53.2168,139.1038,103.4847,256.6313,1.742e-05,-1.1e-07,0.0,0 STARLINK-3520,1 51741U 22016AD  24198.24842866 -.00000011  00000-0  17420-4 0  9994,2 51741  53.2168 139.1038 0001502 103.4847 256.6313 15.08844281133874,6917.867,95.437,540.771,538.693,0.0
51741.0,STARLINK-3520,PAYLOAD,2024-07-17 05:48:25,15.08910537,0.0001856,53.2171,134.6445,124.8778,235.2388,0.00052307,8.062e-05,0.0,0 STARLINK-3520,1 51741U 22016AD  24199.24196475  .00008062  00000-0  52307-3 0  9998,2 51741  53.2171 134.6445 0001856 124.8778 235.2388 15.08910537134023,6917.665,95.433,540.814,538.246,0.0
51741.0,STARLINK-3520,PAYLOAD,2024-07-18 04:03:57,15.08810396,0.0001269,53.217,130.481,91.075,269.0388,-0.00026248,-4.459e-05,0.0,0 STARLINK-3520,1 51741U 22016AD  24200.16941215 -.00004459  00000-0 -26248-3 0  9995,2 51741  53.2170 130.4810 0001269  91.0750 269.0388 15.08810396134167,6917.971,95.439,540.714,538.958,0.0
